LYNK TOWER 5            
1 59121U 24043Z   26068.92489786  .00009048  00000+0  31902-3 0  9994
2 59121  97.5458 204.7305 0010406 234.6422 125.3846 15.29454506111860
STARLINK-31683          
1 59573U 24076K   26068.16360077 -.00000824  00000+0 -20416-4 0  9992
2 59573  43.0049  11.8462 0001170 281.5522  78.5198 15.27573131106423
